#dP2026  5 28  0  0  0.00000000     289 d+D   IGc20 FIT AIUB
## 2420 345600.00000000   300.00000000 61188 0.0000000000000
+  116   G01G02G03G04G05G06G07G08G09G10G11G12G13G14G15G16G17
+        G18G19G20G21G22G23G24G25G26G27G28G29G30G31G32R02R03
+        R04R05R06R07R08R09R11R12R14R15R16R17R18R19R20R21R22
+        R24R26E02E03E04E05E06E07E08E09E10E11E12E13E14E15E16
+        E18E19E21E23E25E26E27E28E29E30E31E32E33E34E36C06C07
+        C08C11C12C13C14C19C20C21C22C23C24C25C26C27C28C29C30
+        C31C32C33C34C35C36C37C38C39C41C42J02J03J04  0  0  0
++         5  5  5  5  5  5  5  5  5  5  5  5  5  5  5  5  5
++         5  5  5  5  5  5  5  5  5  5  5  5  5  5  5  5  5
++         5  5  5  5  5  5  5  5  5  5  5  5  5  5  5  5  5
++         5  5  5  5  5  5  5  5  5  5  5  5  5  5  5  5  5
++         5  5  5  5  5  5  5  5  5  5  5  5  5  5  5  5  5
++         5  5  5  5  5  5  5  5  5  5  5  5  5  5  5  5  5
++         5  5  5  5  5  5  5  5  5  5  5  5  5  5  0  0  0
%c M  cc GPS ccc cccc cccc cccc cccc ccccc ccccc ccccc ccccc
%c cc cc ccc ccc cccc cccc cccc cccc ccccc ccccc ccccc ccccc
%f  1.2500000  1.025000000  0.00000000000  0.000000000000000
%f  0.0000000  0.000000000  0.00000000000  0.000000000000000
%i    0    0    0    0      0      0      0      0         0
%i    0    0    0    0      0      0      0      0         0
/* Center for Orbit Determination in Europe (CODE)                              
/* MGEX orbits and clocks for year-day 2026-1480                                
/* Middle day of a 3-day long-arc multi-GNSS solution                           
/* Systems considered: GPS/GLONASS/Galileo/BeiDou/QZSS                          
/* Product reference - DOI 10.48620/97775                                       
/* PCV:IGS20_2417 OL/AL:FES2014b NONE     YN ORB:CoN CLK:CoN                    
*  2026  5 28  9 55  0.00000000
PG01  15577.319896 -21086.220567   3958.149904    263.095412
PG02  16583.018746 -14583.075430  14690.931463    107.565314
PG03  17192.297840 -11706.672378 -16654.929639    445.571753
PG04   6065.321970 -16233.290947 -20045.994473     58.409560
PG05 -25704.205842   5455.286858   3827.043082   -233.489830
PG06  -9457.565530 -12456.371520 -21381.307966   -598.527403
PG07   4275.951769 -24404.130284   9640.617008   -189.617273
PG08  14998.330947  -5494.505872  21078.020115    433.885353
PG09  -3963.818781 -22258.910224 -13978.146840    744.673820
PG10  15688.690165  11300.879702  18630.942028   -582.081435
PG11 -16808.071967   1068.844857 -20464.909829   -325.611785
PG12 -19165.135457  10659.846697 -15272.486464   -607.380795
PG13 -19041.037290  12017.807898 -14183.069069    329.174369
PG14 -12676.605964 -13389.082599  19324.162392    747.364289
PG15 -13373.333995   7987.521414  20969.516246    415.358946
PG16  26746.594609   1396.453006  -1239.110615    271.132389
PG17 -12353.763982 -23298.762788   1798.316485   -144.253274
PG18  -3436.004543  23629.621762  11376.781673   -341.719049
PG19 -17133.608716 -18643.165137  -8954.760181    700.802945
PG20 -17572.581718   -776.719498  19956.196063    173.218988
PG21 -26033.972229  -2175.947998  -4892.673148    412.650296
PG22 -17735.850754 -11709.602002  16056.906051      5.772247
PG23   2346.306560  14472.960036  22230.729612    652.411431
PG24 -14850.336257  18960.810973  10240.226577     32.934304
PG25  -6142.330739  15654.559787 -20893.484643    419.217056
PG26  23509.793067   5080.281245 -11940.654593   -369.584333
PG27  19227.642480   6367.447295  17033.725639      0.275712
PG28   9699.219147  13502.348876 -20701.389385   -516.794696
PG29    657.348023  21999.179229 -14788.677616   -312.572654
PG30  -5941.940858 -18573.526435  18128.558373    238.636528
PG31  15523.695414   3341.202556 -21609.594607   -146.210962
PG32  16575.096645  20629.795460  -2939.313742     78.132760
PR02 -20757.460610 -12973.016665   7106.419257     12.182500
PR03 -14289.179666    976.377513  21141.217704     13.795646
PR04     22.959289  13002.907339  21977.563523    357.813903
PR05  13934.423622  18254.186180  11132.587913    168.741774
PR06  20919.328359  13472.211737  -5654.646255    -19.517998
PR07  14465.172670   -709.282838 -20968.445477    121.847593
PR08   -439.221757 -13226.362408 -21736.670883     -4.920064
PR09  20207.462141   -438.625989 -15475.463396    328.707510
PR11  14262.853775 -13799.064489  16026.869090      8.861670
PR12  -4458.586311 -10117.853154  23016.329923     69.624926
PR14 -23584.700539   9746.744431   -347.976306     32.684244
PR15 -13756.407314  13859.803067 -16394.460338     55.823964
PR16   4547.134172   9902.405812 -23046.916829     49.829693
PR17 -11000.151831  13115.178453 -18890.597685    299.681765
PR18  -6828.255646  23951.042696  -5607.085516    263.526353
PR19   1706.622049  22386.771568  12043.118072     49.195001
PR20   9427.996582   7450.146460  22520.178493    232.965633
PR21  11351.166049  -9562.534809  20747.709812   -311.609638
PR22   6474.472737 -24352.180140   3968.531087    127.946415
PR24  -9961.115218  -6574.741258 -22536.125218   -168.081100
PR26   2692.834765 -11225.453111 -22727.705682    -27.212802
PE02 -28806.727852    881.520141  -6724.479684     43.256894
PE03 -17947.019484   -867.811092  23522.312488    -19.659823
PE04   7510.728185 -19382.127968 -21072.894028   -158.707441
PE05 -17734.649502 -20360.684924  12152.249006     37.639949
PE06    243.189677 -25687.929795 -14722.958892   -277.057242
PE07   7083.509242  27996.459562   6441.266257    -66.702715
PE08  -7560.672746  19184.895835  21224.738039   -153.887640
PE09  -7059.755903 -28029.251973  -6446.588779   -304.887852
PE10  11495.993239 -25421.870567  -9900.506345   -795.036110
PE11   2625.244627 -23011.979794 -18440.383524   5134.269004
PE12  17544.240398 -23806.189445  -1017.961490    -48.089615
PE13  -3106.399453  23180.519604  18147.842483    -55.764693
PE14  18474.190290   9388.662066  12509.707581   3347.063879
PE15 -17898.592892  23580.458561    389.923600   -261.693550
PE16  -6712.049233 -17108.248461  23215.560233    -34.893142
PE18 -23027.722344 -18432.757277 -12075.460035   2828.841869
PE19  18026.982075   1953.652354 -23384.184782   2989.158558
PE21  24506.056819  11567.025461 -11905.997559   -745.542141
PE23  28814.802395  -1016.310809   6672.369960    -36.518915
PE25 -24127.244767 -11858.436857  12390.480884     21.918431
PE26  13378.273121   9198.062432  24749.472167    317.001588
PE27   5405.298985  17212.312713 -23465.226004  -1000.806733
PE28  14013.050739 -10810.669082 -23728.666018    -46.767264
PE29  17836.979458  20230.580729 -12192.283371   -210.393942
PE30 -15889.721419  12987.583642 -21335.895616  -1091.483565
PE31  16608.408317 -12620.009993  21010.469323   -144.460031
PE32 -14039.509959  10756.815215  23736.637696     15.163774
PE33  21823.236785  -9904.453277  17371.793286    -16.712619
PE34 -21829.865371  10083.052590 -17265.492824   -256.829294
PE36 -13107.318238  -9288.517936 -24865.105139   -571.819918
PC06 -17733.904369  19175.243134  33141.234495    291.166310
PC07 -22375.587925  35797.276481  -2530.758042    -24.969075
PC08  -6588.436233  31806.874904 -26645.009897   -235.774493
PC11 -13684.063894  14180.641518 -19762.067652   -688.658684
PC12 -19684.560653   4321.823621  19311.088270    638.869622
PC13   3502.160455 -27009.234965   6053.477713   -923.162721
PC14  25588.811127   9906.932674  -5032.940311   -342.597821
PC19 -11114.809479  11150.943986  23060.030275   -939.971668
PC20 -23477.627485  -1794.800924  15014.475232   -906.468205
PC21  22982.414512  15412.667635   3428.638326   -852.135131
PC22   8646.118615  18862.160976  18628.356488    454.467733
PC23   2726.494761 -18965.222868  20302.345807   -458.486750
PC24  25037.876288  -6475.626277 -10527.602980   -367.017484
PC25  18561.184567 -19143.092874   8261.799812    856.351202
PC26  16686.762926   7388.279225 -21142.054624   -646.422356
PC27 -12429.948684 -18727.204670 -16564.340876    638.387635
PC28  -3653.135044 -27378.827023  -3977.723654    522.122226
PC29  -9570.197261  21287.039717 -15306.821420    609.676448
PC30 -16138.946143   2862.877251 -22602.404220    457.289569
PC31  13324.214921  18164.633584  16459.487510    797.865068
PC32 -23108.083020 -15276.915066  -3512.384539   -914.457651
PC33  11057.512885 -11238.252186 -23027.728754   -914.542138
PC34  16237.412208  -2099.680507  22576.895269    955.365207
PC35   3416.601292  27633.993624   2062.051721   -404.201871
PC36 -19324.261310  18536.472942  -7800.033489    277.690469
PC37 -15647.002229  -8568.203607  21462.561016   -942.339280
PC38   8770.884883 -22323.449888  14233.440809    139.180779
PC39  -3328.045561  18954.080090 -20201.408285   -878.263273
PC41  -7455.420392 -18666.159135 -19329.453847   -941.589603
PC42  24371.705939   3610.312267 -13018.990046   -892.422388
PJ02 -28017.154598  15770.329982 -22521.221248     -0.293098
PJ03 -26821.936669  32264.249645   -390.109834     -4.451966
PJ04 -25596.134802  25299.866780  27553.537853      0.654472
EOF
